{"fetched_at":"2026-03-29T16:36:15Z","count":15609,"tles":[{"name":"STARLINK-34141","line1":"1 64020U 25101AC  26087.77832597  .00027624  00000+0  10086-2 0  9999","line2":"2 64020  43.0022 250.2389 0001931 271.6737  88.3893 15.27611932 49976","category":"Starlink"}]}