{
  "norad_id": 64020,
  "name": "STARLINK-34141",
  "history": [
    {
      "epoch": "2026-03-28T18:40:47.363808",
      "apogee_km": 484.2787700472127,
      "perigee_km": 481.62819357228,
      "latitude_deg": -0.027827696909951686,
      "longitude_deg": -63.2807068801485,
      "semi_major_axis_km": 6861.090481809746,
      "eccentricity": 0.00019316,
      "inclination_deg": 43.0022,
      "raan_deg": 250.2389,
      "arg_perigee_deg": 271.6737,
      "mean_anomaly_deg": 88.3893,
      "mean_motion_rev_day": 15.27611932
    }
  ]
}